[{"OBJECT_NAME":"STARLINK-3592","OBJECT_ID":"2022-017AK","EPOCH":"2026-03-09T22:49:38.137440","MEAN_MOTION":15.08833106,"ECCENTRICITY":0.00014645,"INCLINATION":53.2185,"RA_OF_ASC_NODE":347.9452,"ARG_OF_PERICENTER":82.028,"MEAN_ANOMALY":278.0878,"EPHEMERIS_TYPE":0,"CLASSIFICATION_TYPE":"U","NORAD_CAT_ID":51801,"ELEMENT_SET_NO":999,"REV_AT_EPOCH":22396,"BSTAR":4.2285288e-5,"MEAN_MOTION_DOT":3.85e-6,"MEAN_MOTION_DDOT":0},{"OBJECT_NAME":"DISKSAT C","OBJECT_ID":"2025-305A","EPOCH":"2026-03-09T19:16:32.318976","MEAN_MOTION":15.07852977,"ECCENTRICITY":0.00045341,"INCLINATION":45.0017,"RA_OF_ASC_NODE":250.1278,"ARG_OF_PERICENTER":310.7706,"MEAN_ANOMALY":49.2776,"EPHEMERIS_TYPE":0,"CLASSIFICATION_TYPE":"U","NORAD_CAT_ID":67219,"ELEMENT_SET_NO":999,"REV_AT_EPOCH":1231,"BSTAR":0.00075564202,"MEAN_MOTION_DOT":0.00011541,"MEAN_MOTION_DDOT":0}]
